SPACEMOBILE-006         
1 67232U 25309A   26133.02654948  .00001120  00000+0  69259-4 0  9990
2 67232  52.9962 132.6510 0011744  29.9831 330.1833 15.18344280 21259
